ONEWEB-0112             
1 48051U 21025K   25250.87171656  .00000268  00000+0  70010-3 0  9999
2 48051  87.9029  16.2770 0001810  98.9553 261.1781 13.13469385216533
ONEWEB-0156             
1 48052U 21025L   25251.26106671  .00000443  00000+0  11775-2 0  9996
2 48052  87.9028  16.2119 0001815 102.5913 257.5419 13.13469873216569
ONEWEB-0161             
1 48053U 21025M   25250.85477478 -.00000143  00000+0 -42522-3 0  9991
2 48053  87.9032  16.3117 0001815 104.1969 255.9362 13.13470575216440
ONEWEB-0158             
1 48054U 21025N   25251.27123518  .00000359  00000+0  94855-3 0  9995
2 48054  87.9031  16.2085 0001547  88.7093 271.4213 13.13471892216621
ONEWEB-0157             
1 48055U 21025P   25251.06807517 -.00000267  00000+0 -76495-3 0  9991
2 48055  87.9025  16.2571 0001800 112.8251 247.3068 13.13469985216532
ONEWEB-0162             
1 48056U 21025Q   25251.27278030  .00000315  00000+0  82756-3 0  9996
2 48056  87.9031  16.2161 0001763  99.9326 260.2002 13.13469463216534
ONEWEB-0155             
1 48057U 21025R   25251.27968088  .00000102  00000+0  24541-3 0  9998
2 48057  87.9026  16.2218 0001575 103.2373 256.8932 13.13469592216675
ONEWEB-0149             
1 48058U 21025S   25251.07315633 -.00000233  00000+0 -67410-3 0  9998
2 48058  87.9027  16.2575 0001978  99.4616 260.6737 13.13471171216454
ONEWEB-0148             
1 48059U 21025T   25251.26445152  .00000494  00000+0  13187-2 0  9998
2 48059  87.9025  16.2436 0002369 105.8067 254.3323 13.13470803216605
ONEWEB-0160             
1 48060U 21025U   25251.28137462  .00000091  00000+0  21346-3 0  9994
2 48060  87.9025  16.2378 0001787  72.0556 288.0768 13.13470094216556
ONEWEB-0163             
1 48061U 21025V   25251.26614363  .00000385  00000+0  10189-2 0  9991
2 48061  87.9027  16.2211 0001745 110.0269 250.1048 13.13470154216674
ONEWEB-0159             
1 48062U 21025W   25251.10532087  .00000408  00000+0  10822-2 0  9997
2 48062  87.9029  16.2354 0001871 105.8368 254.2968 13.13470617216576
ONEWEB-0164             
1 48063U 21025X   25251.08670031 -.00000053  00000+0 -17919-3 0  9990
2 48063  87.9026  16.2481 0001716  96.5177 263.6148 13.13470503216553
ONEWEB-0167             
1 48064U 21025Y   25251.26698012  .00000362  00000+0  95712-3 0  9998
2 48064  87.9024  16.2466 0001171 121.6425 238.4818 13.13469061216568
ONEWEB-0166             
1 48065U 21025Z   25251.28983628 -.00000092  00000+0 -28744-3 0  9994
2 48065  87.9027  16.1918 0001916 101.1007 259.0337 13.13469562216649
ONEWEB-0151             
1 48066U 21025AA  25251.29153190 -.00000149  00000+0 -44290-3 0  9996
2 48066  87.9030  16.2162 0001590 100.2315 259.8994 13.13470158216589
