[{"OBJECT_NAME":"ONEWEB-0112","OBJECT_ID":"2021-025K","EPOCH":"2025-09-07T20:55:16.310784","MEAN_MOTION":13.13469385,"ECCENTRICITY":0.00018109,"INCLINATION":87.9029,"RA_OF_ASC_NODE":16.277,"ARG_OF_PERICENTER":98.9553,"MEAN_ANOMALY":261.1781,"EPHEMERIS_TYPE":0,"CLASSIFICATION_TYPE":"U","NORAD_CAT_ID":48051,"ELEMENT_SET_NO":999,"REV_AT_EPOCH":21653,"BSTAR":0.00070010081,"MEAN_MOTION_DOT":2.68e-6,"MEAN_MOTION_DDOT":0},{"OBJECT_NAME":"ONEWEB-0156","OBJECT_ID":"2021-025L","EPOCH":"2025-09-08T06:15:56.163744","MEAN_MOTION":13.13469873,"ECCENTRICITY":0.00018158,"INCLINATION":87.9028,"RA_OF_ASC_NODE":16.2119,"ARG_OF_PERICENTER":102.5913,"MEAN_ANOMALY":257.5419,"EPHEMERIS_TYPE":0,"CLASSIFICATION_TYPE":"U","NORAD_CAT_ID":48052,"ELEMENT_SET_NO":999,"REV_AT_EPOCH":21656,"BSTAR":0.0011775278,"MEAN_MOTION_DOT":4.43e-6,"MEAN_MOTION_DDOT":0},{"OBJECT_NAME":"ONEWEB-0161","OBJECT_ID":"2021-025M","EPOCH":"2025-09-07T20:30:52.540992","MEAN_MOTION":13.13470575,"ECCENTRICITY":0.00018158,"INCLINATION":87.9032,"RA_OF_ASC_NODE":16.3117,"ARG_OF_PERICENTER":104.1969,"MEAN_ANOMALY":255.9362,"EPHEMERIS_TYPE":0,"CLASSIFICATION_TYPE":"U","NORAD_CAT_ID":48053,"ELEMENT_SET_NO":999,"REV_AT_EPOCH":21644,"BSTAR":-0.00042522316,"MEAN_MOTION_DOT":-1.43e-6,"MEAN_MOTION_DDOT":0},{"OBJECT_NAME":"ONEWEB-0158","OBJECT_ID":"2021-025N","EPOCH":"2025-09-08T06:30:34.719552","MEAN_MOTION":13.13471892,"ECCENTRICITY":0.00015471,"INCLINATION":87.9031,"RA_OF_ASC_NODE":16.2085,"ARG_OF_PERICENTER":88.7093,"MEAN_ANOMALY":271.4213,"EPHEMERIS_TYPE":0,"CLASSIFICATION_TYPE":"U","NORAD_CAT_ID":48054,"ELEMENT_SET_NO":999,"REV_AT_EPOCH":21662,"BSTAR":0.0009485495,"MEAN_MOTION_DOT":3.59e-6,"MEAN_MOTION_DDOT":0},{"OBJECT_NAME":"ONEWEB-0157","OBJECT_ID":"2021-025P","EPOCH":"2025-09-08T01:38:01.694688","MEAN_MOTION":13.13469985,"ECCENTRICITY":0.00018,"INCLINATION":87.9025,"RA_OF_ASC_NODE":16.2571,"ARG_OF_PERICENTER":112.8251,"MEAN_ANOMALY":247.3068,"EPHEMERIS_TYPE":0,"CLASSIFICATION_TYPE":"U","NORAD_CAT_ID":48055,"ELEMENT_SET_NO":999,"REV_AT_EPOCH":21653,"BSTAR":-0.00076494972,"MEAN_MOTION_DOT":-2.67e-6,"MEAN_MOTION_DDOT":0},{"OBJECT_NAME":"ONEWEB-0162","OBJECT_ID":"2021-025Q","EPOCH":"2025-09-08T06:32:48.217920","MEAN_MOTION":13.13469463,"ECCENTRICITY":0.00017637,"INCLINATION":87.9031,"RA_OF_ASC_NODE":16.2161,"ARG_OF_PERICENTER":99.9326,"MEAN_ANOMALY":260.2002,"EPHEMERIS_TYPE":0,"CLASSIFICATION_TYPE":"U","NORAD_CAT_ID":48056,"ELEMENT_SET_NO":999,"REV_AT_EPOCH":21653,"BSTAR":0.00082755829,"MEAN_MOTION_DOT":3.15e-6,"MEAN_MOTION_DDOT":0},{"OBJECT_NAME":"ONEWEB-0155","OBJECT_ID":"2021-025R","EPOCH":"2025-09-08T06:42:44.428032","MEAN_MOTION":13.13469592,"ECCENTRICITY":0.00015752,"INCLINATION":87.9026,"RA_OF_ASC_NODE":16.2218,"ARG_OF_PERICENTER":103.2373,"MEAN_ANOMALY":256.8932,"EPHEMERIS_TYPE":0,"CLASSIFICATION_TYPE":"U","NORAD_CAT_ID":48057,"ELEMENT_SET_NO":999,"REV_AT_EPOCH":21667,"BSTAR":0.00024541305,"MEAN_MOTION_DOT":1.02e-6,"MEAN_MOTION_DDOT":0},{"OBJECT_NAME":"ONEWEB-0149","OBJECT_ID":"2021-025S","EPOCH":"2025-09-08T01:45:20.706912","MEAN_MOTION":13.13471171,"ECCENTRICITY":0.00019782,"INCLINATION":87.9027,"RA_OF_ASC_NODE":16.2575,"ARG_OF_PERICENTER":99.4616,"MEAN_ANOMALY":260.6737,"EPHEMERIS_TYPE":0,"CLASSIFICATION_TYPE":"U","NORAD_CAT_ID":48058,"ELEMENT_SET_NO":999,"REV_AT_EPOCH":21645,"BSTAR":-0.00067410113,"MEAN_MOTION_DOT":-2.33e-6,"MEAN_MOTION_DDOT":0},{"OBJECT_NAME":"ONEWEB-0148","OBJECT_ID":"2021-025T","EPOCH":"2025-09-08T06:20:48.611328","MEAN_MOTION":13.13470803,"ECCENTRICITY":0.00023695,"INCLINATION":87.9025,"RA_OF_ASC_NODE":16.2436,"ARG_OF_PERICENTER":105.8067,"MEAN_ANOMALY":254.3323,"EPHEMERIS_TYPE":0,"CLASSIFICATION_TYPE":"U","NORAD_CAT_ID":48059,"ELEMENT_SET_NO":999,"REV_AT_EPOCH":21660,"BSTAR":0.0013186557,"MEAN_MOTION_DOT":4.94e-6,"MEAN_MOTION_DDOT":0},{"OBJECT_NAME":"ONEWEB-0160","OBJECT_ID":"2021-025U","EPOCH":"2025-09-08T06:45:10.767168","MEAN_MOTION":13.13470094,"ECCENTRICITY":0.00017879,"INCLINATION":87.9025,"RA_OF_ASC_NODE":16.2378,"ARG_OF_PERICENTER":72.0556,"MEAN_ANOMALY":288.0768,"EPHEMERIS_TYPE":0,"CLASSIFICATION_TYPE":"U","NORAD_CAT_ID":48060,"ELEMENT_SET_NO":999,"REV_AT_EPOCH":21655,"BSTAR":0.00021346,"MEAN_MOTION_DOT":9.1e-7,"MEAN_MOTION_DDOT":0},{"OBJECT_NAME":"ONEWEB-0163","OBJECT_ID":"2021-025V","EPOCH":"2025-09-08T06:23:14.809632","MEAN_MOTION":13.13470154,"ECCENTRICITY":0.00017455,"INCLINATION":87.9027,"RA_OF_ASC_NODE":16.2211,"ARG_OF_PERICENTER":110.0269,"MEAN_ANOMALY":250.1048,"EPHEMERIS_TYPE":0,"CLASSIFICATION_TYPE":"U","NORAD_CAT_ID":48061,"ELEMENT_SET_NO":999,"REV_AT_EPOCH":21667,"BSTAR":0.0010189223,"MEAN_MOTION_DOT":3.85e-6,"MEAN_MOTION_DDOT":0},{"OBJECT_NAME":"ONEWEB-0159","OBJECT_ID":"2021-025W","EPOCH":"2025-09-08T02:31:39.723168","MEAN_MOTION":13.13470617,"ECCENTRICITY":0.00018715,"INCLINATION":87.9029,"RA_OF_ASC_NODE":16.2354,"ARG_OF_PERICENTER":105.8368,"MEAN_ANOMALY":254.2968,"EPHEMERIS_TYPE":0,"CLASSIFICATION_TYPE":"U","NORAD_CAT_ID":48062,"ELEMENT_SET_NO":999,"REV_AT_EPOCH":21657,"BSTAR":0.0010822471,"MEAN_MOTION_DOT":4.08e-6,"MEAN_MOTION_DDOT":0},{"OBJECT_NAME":"ONEWEB-0164","OBJECT_ID":"2021-025X","EPOCH":"2025-09-08T02:04:50.906784","MEAN_MOTION":13.13470503,"ECCENTRICITY":0.00017168,"INCLINATION":87.9026,"RA_OF_ASC_NODE":16.2481,"ARG_OF_PERICENTER":96.5177,"MEAN_ANOMALY":263.6148,"EPHEMERIS_TYPE":0,"CLASSIFICATION_TYPE":"U","NORAD_CAT_ID":48063,"ELEMENT_SET_NO":999,"REV_AT_EPOCH":21655,"BSTAR":-0.00017919019,"MEAN_MOTION_DOT":-5.3e-7,"MEAN_MOTION_DDOT":0},{"OBJECT_NAME":"ONEWEB-0167","OBJECT_ID":"2021-025Y","EPOCH":"2025-09-08T06:24:27.082368","MEAN_MOTION":13.13469061,"ECCENTRICITY":0.00011718,"INCLINATION":87.9024,"RA_OF_ASC_NODE":16.2466,"ARG_OF_PERICENTER":121.6425,"MEAN_ANOMALY":238.4818,"EPHEMERIS_TYPE":0,"CLASSIFICATION_TYPE":"U","NORAD_CAT_ID":48064,"ELEMENT_SET_NO":999,"REV_AT_EPOCH":21656,"BSTAR":0.0009571246,"MEAN_MOTION_DOT":3.62e-6,"MEAN_MOTION_DDOT":0},{"OBJECT_NAME":"ONEWEB-0166","OBJECT_ID":"2021-025Z","EPOCH":"2025-09-08T06:57:21.854592","MEAN_MOTION":13.13469562,"ECCENTRICITY":0.00019167,"INCLINATION":87.9027,"RA_OF_ASC_NODE":16.1918,"ARG_OF_PERICENTER":101.1007,"MEAN_ANOMALY":259.0337,"EPHEMERIS_TYPE":0,"CLASSIFICATION_TYPE":"U","NORAD_CAT_ID":48065,"ELEMENT_SET_NO":999,"REV_AT_EPOCH":21664,"BSTAR":-0.00028743654,"MEAN_MOTION_DOT":-9.2e-7,"MEAN_MOTION_DDOT":0},{"OBJECT_NAME":"ONEWEB-0151","OBJECT_ID":"2021-025AA","EPOCH":"2025-09-08T06:59:48.356160","MEAN_MOTION":13.13470158,"ECCENTRICITY":0.00015905,"INCLINATION":87.903,"RA_OF_ASC_NODE":16.2162,"ARG_OF_PERICENTER":100.2315,"MEAN_ANOMALY":259.8994,"EPHEMERIS_TYPE":0,"CLASSIFICATION_TYPE":"U","NORAD_CAT_ID":48066,"ELEMENT_SET_NO":999,"REV_AT_EPOCH":21658,"BSTAR":-0.0004429,"MEAN_MOTION_DOT":-1.49e-6,"MEAN_MOTION_DDOT":0}]
